{
  "type": "FeatureCollection",
  "features": [
    {
      "type": "Feature",
      "properties": {
        "norad_id": 19071,
        "name": "OSCAR 32",
        "group": "nnss",
        "lat": -75.92409901766936,
        "lon": 17.795504624636337,
        "alt_km": 1222.2819932361472,
        "timestamp": "2025-12-12T07:43:20.781953+00:00",
        "meta_object_name": "OSCAR 32",
        "meta_object_id": "1988-033B",
        "meta_epoch": "2025-12-12T01:01:40.430784",
        "meta_mean_motion": 13.2795382,
        "meta_eccentricity": 0.01883002,
        "meta_inclination": 90.3217,
        "meta_ra_of_asc_node": 16.5029,
        "meta_arg_of_pericenter": 168.7275,
        "meta_mean_anomaly": 220.696,
        "meta_ephemeris_type": 0,
        "meta_classification_type": "U",
        "meta_norad_cat_id": 19071,
        "meta_element_set_no": 999,
        "meta_rev_at_epoch": 82256,
        "meta_bstar": 0.000141287,
        "meta_mean_motion_dot": 7.9e-07,
        "meta_mean_motion_ddot": 0,
        "tle_line1": "1 19071U 88033B   25346.04282906  .00000079  00000+0  14129-3 0  9996",
        "tle_line2": "2 19071  90.3217  16.5029 0188300 168.7275 220.6960 13.27953820822569"
      },
      "geometry": {
        "type": "Point",
        "coordinates": [
          17.795504624636337,
          -75.92409901766936
        ]
      }
    },
    {
      "type": "Feature",
      "properties": {
        "norad_id": 19223,
        "name": "NOVA 2",
        "group": "nnss",
        "lat": 52.683003941780974,
        "lon": -101.74386147987592,
        "alt_km": 1176.2107138633928,
        "timestamp": "2025-12-12T07:43:20.781963+00:00",
        "meta_object_name": "NOVA 2",
        "meta_object_id": "1988-052A",
        "meta_epoch": "2025-12-11T20:48:30.108096",
        "meta_mean_motion": 13.22935796,
        "meta_eccentricity": 0.00306659,
        "meta_inclination": 89.9872,
        "meta_ra_of_asc_node": 78.2735,
        "meta_arg_of_pericenter": 19.2883,
        "meta_mean_anomaly": 103.0937,
        "meta_ephemeris_type": 0,
        "meta_classification_type": "U",
        "meta_norad_cat_id": 19223,
        "meta_element_set_no": 999,
        "meta_rev_at_epoch": 80936,
        "meta_bstar": 0.00020973634,
        "meta_mean_motion_dot": 9.7e-07,
        "meta_mean_motion_ddot": 0,
        "tle_line1": "1 19223U 88052A   25345.86701514  .00000097  00000+0  20974-3 0  9991",
        "tle_line2": "2 19223  89.9872  78.2735 0030665  19.2883 103.0937 13.22935796809361"
      },
      "geometry": {
        "type": "Point",
        "coordinates": [
          -101.74386147987592,
          52.683003941780974
        ]
      }
    },
    {
      "type": "Feature",
      "properties": {
        "norad_id": 19419,
        "name": "OSCAR 25",
        "group": "nnss",
        "lat": 7.3963278858199075,
        "lon": -159.75256981640717,
        "alt_km": 1082.0652269040165,
        "timestamp": "2025-12-12T07:43:20.781973+00:00",
        "meta_object_name": "OSCAR 25",
        "meta_object_id": "1988-074A",
        "meta_epoch": "2025-12-12T00:01:52.442688",
        "meta_mean_motion": 13.42623124,
        "meta_eccentricity": 0.00944224,
        "meta_inclination": 90.0348,
        "meta_ra_of_asc_node": 20.2418,
        "meta_arg_of_pericenter": 247.9903,
        "meta_mean_anomaly": 177.4982,
        "meta_ephemeris_type": 0,
        "meta_classification_type": "U",
        "meta_norad_cat_id": 19419,
        "meta_element_set_no": 999,
        "meta_rev_at_epoch": 82630,
        "meta_bstar": 0.00021314801,
        "meta_mean_motion_dot": 1.32e-06,
        "meta_mean_motion_ddot": 0,
        "tle_line1": "1 19419U 88074A   25346.00130142  .00000132  00000+0  21315-3 0  9992",
        "tle_line2": "2 19419  90.0348  20.2418 0094422 247.9903 177.4982 13.42623124826307"
      },
      "geometry": {
        "type": "Point",
        "coordinates": [
          -159.75256981640717,
          7.3963278858199075
        ]
      }
    },
    {
      "type": "Feature",
      "properties": {
        "norad_id": 19420,
        "name": "OSCAR 31",
        "group": "nnss",
        "lat": 57.37512440425453,
        "lon": 20.535979433298383,
        "alt_km": 1163.4077430290854,
        "timestamp": "2025-12-12T07:43:20.781983+00:00",
        "meta_object_name": "OSCAR 31",
        "meta_object_id": "1988-074B",
        "meta_epoch": "2025-12-12T00:35:45.471840",
        "meta_mean_motion": 13.42584505,
        "meta_eccentricity": 0.00927026,
        "meta_inclination": 90.0364,
        "meta_ra_of_asc_node": 20.5918,
        "meta_arg_of_pericenter": 242.0101,
        "meta_mean_anomaly": 181.015,
        "meta_ephemeris_type": 0,
        "meta_classification_type": "U",
        "meta_norad_cat_id": 19420,
        "meta_element_set_no": 999,
        "meta_rev_at_epoch": 82641,
        "meta_bstar": 0.00019741407,
        "meta_mean_motion_dot": 1.23e-06,
        "meta_mean_motion_ddot": 0,
        "tle_line1": "1 19420U 88074B   25346.02483185  .00000123  00000+0  19741-3 0  9994",
        "tle_line2": "2 19420  90.0364  20.5918 0092702 242.0101 181.0150 13.42584505826419"
      },
      "geometry": {
        "type": "Point",
        "coordinates": [
          20.535979433298383,
          57.37512440425453
        ]
      }
    }
  ]
}